STARLINK-37061          
1 68185U 26050U   26088.14701967  .00204564  00000+0  10134-2 0  9991
2 68185  53.1592 184.1709 0001330  24.3363 335.7723 15.80919407  3550
STARLINK-37079          
1 68186U 26050V   26087.76694861  .00594735  00000+0  27839-2 0  9995
2 68186  53.1590 186.0669 0001158  55.0847 305.0285 15.81107962  3493
STARLINK-37006          
1 68187U 26050W   26088.14552031  .00269698  00000+0  13234-2 0  9992
2 68187  53.1591 184.1608 0001360  21.2727 338.8352 15.80944511  3558
STARLINK-36340          
1 68188U 26050X   26088.14476859  .00224779  00000+0  11099-2 0  9994
2 68188  53.1594 184.1558 0001549  16.0494 344.0578 15.80933420  3453
STARLINK-36305          
1 68189U 26050Y   26088.14403211  .00366033  00000+0  17737-2 0  9992
2 68189  53.1593 184.1509 0000715  33.3888 326.7179 15.80956019  3455
STARLINK-37071          
1 68190U 26050Z   26088.14251976  .00240387  00000+0  11845-2 0  9990
2 68190  53.1594 184.1406 0000670  48.2796 311.8284 15.80934673  3552
STARLINK-37091          
1 68191U 26050AA  26088.14176854  .00265851  00000+0  13049-2 0  9993
2 68191  53.1591 184.1348 0000857  30.1729 329.9343 15.80948179  3550
STARLINK-37098          
1 68192U 26050AB  26088.14101765  .00311784  00000+0  15247-2 0  9992
2 68192  53.1594 184.1300 0000881  57.2615 302.8492 15.80902760  3554
STARLINK-37090          
1 68193U 26050AC  26088.13952058  .00705845  00000+0  32679-2 0  9994
2 68193  53.1594 184.1193 0001338  10.9491 349.1560 15.81057870  3555
STARLINK-37093          
1 68194U 26050AD  26088.14326873  .00214608  00000+0  10616-2 0  9995
2 68194  53.1594 184.1452 0001241  22.5888 337.5189 15.80922253  3559
STARLINK-37058          
1 68195U 26050AE  26088.14026936  .00215565  00000+0  10663-2 0  9998
2 68195  53.1594 184.1241 0000939  44.9710 315.1389 15.80921275  1994
YAOGAN-50 02            
1 68196U 26051A   26088.21841935  .00000267  00000+0  72652-4 0  9991
2 68196 141.9870 301.4020 0000775 261.9564  98.1068 13.83266368  1913
